STARLINK-1047           
1 44752U 19074AR  26068.49630605  .00012216  00000+0  39384-3 0  9999
2 44752  53.0690 146.9116 0002226 203.7253 156.3646 15.32581056349316
STARLINK-35432          
1 66021U 25232S   26068.80832714  .00020069  00000+0  68795-3 0  9998
2 66021  53.1590 103.3633 0001332  93.8180 266.2973 15.30196323 23459
